[Satellite]
VERSION=1.1
NAME=COSMOS 2151
NICKNAME=COSMOS 2151
TLE1=1 21422U 91042A   15055.23880857  .00001198  00000-0  11882-3 0  9996
TLE2=2 21422  82.5040 329.1405 0013395 226.4658 133.5450 14.90904095282701
